[
  {
    "OBJECT_NAME": "STARLINK-35167",
    "OBJECT_ID": "25216C",
    "EPOCH": "2025-11-10T22:51:30.937824",
    "MEAN_MOTION": 15.39675527,
    "ECCENTRICITY": 0.0005851,
    "INCLINATION": 53.1589,
    "RA_OF_ASC_NODE": 165.1782,
    "ARG_OF_PERICENTER": 66.9579,
    "MEAN_ANOMALY": 293.2042,
    "EPHEMERIS_TYPE": 0,
    "CLASSIFICATION_TYPE": "U",
    "NORAD_CAT_ID": 65736,
    "ELEMENT_SET_NO": 999,
    "REV_AT_EPOCH": 835,
    "BSTAR": 0.0011711,
    "MEAN_MOTION_DOT": 0.00046837,
    "MEAN_MOTION_DDOT": 0.0,
    "TLE_LINE1": "1 65736U 25216C   25314.95244141  .00046837  00000+0  11711-2 0  9998",
    "TLE_LINE2": "2 65736  53.1589 165.1782 0005851  66.9579 293.2042 15.39675527  8359",
    "COMMENT": "Grouped by shell and plane from TLE"
  },
  {
    "OBJECT_NAME": "STARLINK-35121",
    "OBJECT_ID": "25216D",
    "EPOCH": "2025-11-10T23:44:50.508672",
    "MEAN_MOTION": 15.39651954,
    "ECCENTRICITY": 6.72e-05,
    "INCLINATION": 53.1611,
    "RA_OF_ASC_NODE": 164.6918,
    "ARG_OF_PERICENTER": 76.4306,
    "MEAN_ANOMALY": 283.6774,
    "EPHEMERIS_TYPE": 0,
    "CLASSIFICATION_TYPE": "U",
    "NORAD_CAT_ID": 65737,
    "ELEMENT_SET_NO": 999,
    "REV_AT_EPOCH": 836,
    "BSTAR": 0.0015877,
    "MEAN_MOTION_DOT": 0.00063708,
    "MEAN_MOTION_DDOT": 0.0,
    "TLE_LINE1": "1 65737U 25216D   25314.98947348  .00063708  00000+0  15877-2 0  9994",
    "TLE_LINE2": "2 65737  53.1611 164.6918 0000672  76.4306 283.6774 15.39651954  8365",
    "COMMENT": "Grouped by shell and plane from TLE"
  },
  {
    "OBJECT_NAME": "STARLINK-35108",
    "OBJECT_ID": "25216E",
    "EPOCH": "2025-11-09T23:42:42.900192",
    "MEAN_MOTION": 15.39615488,
    "ECCENTRICITY": 9.74e-05,
    "INCLINATION": 53.1604,
    "RA_OF_ASC_NODE": 169.8255,
    "ARG_OF_PERICENTER": 118.7873,
    "MEAN_ANOMALY": 241.323,
    "EPHEMERIS_TYPE": 0,
    "CLASSIFICATION_TYPE": "U",
    "NORAD_CAT_ID": 65738,
    "ELEMENT_SET_NO": 999,
    "REV_AT_EPOCH": 825,
    "BSTAR": 0.0013927,
    "MEAN_MOTION_DOT": 0.00055705,
    "MEAN_MOTION_DDOT": 0.0,
    "TLE_LINE1": "1 65738U 25216E   25313.98799653  .00055705  00000+0  13927-2 0  9990",
    "TLE_LINE2": "2 65738  53.1604 169.8255 0000974 118.7873 241.3230 15.39615488  8251",
    "COMMENT": "Grouped by shell and plane from TLE"
  },
  {
    "OBJECT_NAME": "STARLINK-35106",
    "OBJECT_ID": "25216F",
    "EPOCH": "2025-11-10T23:31:28.049664",
    "MEAN_MOTION": 15.39646376,
    "ECCENTRICITY": 6.84e-05,
    "INCLINATION": 53.1619,
    "RA_OF_ASC_NODE": 164.6344,
    "ARG_OF_PERICENTER": 68.978,
    "MEAN_ANOMALY": 291.1298,
    "EPHEMERIS_TYPE": 0,
    "CLASSIFICATION_TYPE": "U",
    "NORAD_CAT_ID": 65739,
    "ELEMENT_SET_NO": 999,
    "REV_AT_EPOCH": 833,
    "BSTAR": 0.0014264,
    "MEAN_MOTION_DOT": 0.00057132,
    "MEAN_MOTION_DDOT": 0.0,
    "TLE_LINE1": "1 65739U 25216F   25314.98018576  .00057132  00000+0  14264-2 0  9991",
    "TLE_LINE2": "2 65739  53.1619 164.6344 0000684  68.9780 291.1298 15.39646376  8337",
    "COMMENT": "Grouped by shell and plane from TLE"
  },
  {
    "OBJECT_NAME": "STARLINK-35130",
    "OBJECT_ID": "25216G",
    "EPOCH": "2025-11-11T00:18:16.438464",
    "MEAN_MOTION": 15.39660791,
    "ECCENTRICITY": 8.15e-05,
    "INCLINATION": 53.1593,
    "RA_OF_ASC_NODE": 164.841,
    "ARG_OF_PERICENTER": 357.9889,
    "MEAN_ANOMALY": 2.1112,
    "EPHEMERIS_TYPE": 0,
    "CLASSIFICATION_TYPE": "U",
    "NORAD_CAT_ID": 65740,
    "ELEMENT_SET_NO": 999,
    "REV_AT_EPOCH": 841,
    "BSTAR": 0.001613,
    "MEAN_MOTION_DOT": 0.00064755,
    "MEAN_MOTION_DDOT": 0.0,
    "TLE_LINE1": "1 65740U 25216G   25315.01269026  .00064755  00000+0  16130-2 0  9999",
    "TLE_LINE2": "2 65740  53.1593 164.8410 0000815 357.9889   2.1112 15.39660791  8414",
    "COMMENT": "Grouped by shell and plane from TLE"
  },
  {
    "OBJECT_NAME": "STARLINK-35284",
    "OBJECT_ID": "25216H",
    "EPOCH": "2025-11-11T06:58:55.857792",
    "MEAN_MOTION": 15.39693389,
    "ECCENTRICITY": 0.0001041,
    "INCLINATION": 53.1577,
    "RA_OF_ASC_NODE": 163.7363,
    "ARG_OF_PERICENTER": 77.2183,
    "MEAN_ANOMALY": 282.8938,
    "EPHEMERIS_TYPE": 0,
    "CLASSIFICATION_TYPE": "U",
    "NORAD_CAT_ID": 65741,
    "ELEMENT_SET_NO": 999,
    "REV_AT_EPOCH": 840,
    "BSTAR": 0.0,
    "MEAN_MOTION_DOT": -2.642e-05,
    "MEAN_MOTION_DDOT": 0.0,
    "TLE_LINE1": "1 65741U 25216H   25315.29092428 -.00002642  00000+0 -55946-4 0  9999",
    "TLE_LINE2": "2 65741  53.1577 163.7363 0001041  77.2183 282.8938 15.39693389  8404",
    "COMMENT": "Grouped by shell and plane from TLE"
  },
  {
    "OBJECT_NAME": "STARLINK-35316",
    "OBJECT_ID": "25216J",
    "EPOCH": "2025-11-11T06:45:33.171552",
    "MEAN_MOTION": 15.39711997,
    "ECCENTRICITY": 7.94e-05,
    "INCLINATION": 53.1561,
    "RA_OF_ASC_NODE": 163.6786,
    "ARG_OF_PERICENTER": 304.9056,
    "MEAN_ANOMALY": 55.1874,
    "EPHEMERIS_TYPE": 0,
    "CLASSIFICATION_TYPE": "U",
    "NORAD_CAT_ID": 65742,
    "ELEMENT_SET_NO": 999,
    "REV_AT_EPOCH": 732,
    "BSTAR": 0.0014355000000000001,
    "MEAN_MOTION_DOT": 0.00057627,
    "MEAN_MOTION_DDOT": 0.0,
    "TLE_LINE1": "1 65742U 25216J   25315.28163393  .00057627  00000+0  14355-2 0  9997",
    "TLE_LINE2": "2 65742  53.1561 163.6786 0000794 304.9056  55.1874 15.39711997  7325",
    "COMMENT": "Grouped by shell and plane from TLE"
  },
  {
    "OBJECT_NAME": "STARLINK-35319",
    "OBJECT_ID": "25216K",
    "EPOCH": "2025-11-10T23:58:12.650592",
    "MEAN_MOTION": 15.39692592,
    "ECCENTRICITY": 2e-05,
    "INCLINATION": 53.1617,
    "RA_OF_ASC_NODE": 164.7521,
    "ARG_OF_PERICENTER": 275.6671,
    "MEAN_ANOMALY": 84.4311,
    "EPHEMERIS_TYPE": 0,
    "CLASSIFICATION_TYPE": "U",
    "NORAD_CAT_ID": 65743,
    "ELEMENT_SET_NO": 999,
    "REV_AT_EPOCH": 841,
    "BSTAR": 0.0020215,
    "MEAN_MOTION_DOT": 0.00081521,
    "MEAN_MOTION_DDOT": 0.0,
    "TLE_LINE1": "1 65743U 25216K   25314.99875753  .00081521  00000+0  20215-2 0  9997",
    "TLE_LINE2": "2 65743  53.1617 164.7521 0000200 275.6671  84.4311 15.39692592  8417",
    "COMMENT": "Grouped by shell and plane from TLE"
  },
  {
    "OBJECT_NAME": "STARLINK-35173",
    "OBJECT_ID": "25216L",
    "EPOCH": "2025-11-11T04:52:02.312256",
    "MEAN_MOTION": 15.39556602,
    "ECCENTRICITY": 0.0001533,
    "INCLINATION": 53.1537,
    "RA_OF_ASC_NODE": 163.892,
    "ARG_OF_PERICENTER": 150.697,
    "MEAN_ANOMALY": 209.4121,
    "EPHEMERIS_TYPE": 0,
    "CLASSIFICATION_TYPE": "U",
    "NORAD_CAT_ID": 65744,
    "ELEMENT_SET_NO": 999,
    "REV_AT_EPOCH": 844,
    "BSTAR": 0.00024204,
    "MEAN_MOTION_DOT": 9.274e-05,
    "MEAN_MOTION_DDOT": 0.0,
    "TLE_LINE1": "1 65744U 25216L   25315.20280454  .00009274  00000+0  24204-3 0  9999",
    "TLE_LINE2": "2 65744  53.1537 163.8920 0001533 150.6970 209.4121 15.39556602  8448",
    "COMMENT": "Grouped by shell and plane from TLE"
  },
  {
    "OBJECT_NAME": "STARLINK-34808",
    "OBJECT_ID": "25216M",
    "EPOCH": "2025-11-10T23:51:31.659552",
    "MEAN_MOTION": 15.39655319,
    "ECCENTRICITY": 5.62e-05,
    "INCLINATION": 53.1607,
    "RA_OF_ASC_NODE": 164.7208,
    "ARG_OF_PERICENTER": 91.2055,
    "MEAN_ANOMALY": 268.9015,
    "EPHEMERIS_TYPE": 0,
    "CLASSIFICATION_TYPE": "U",
    "NORAD_CAT_ID": 65745,
    "ELEMENT_SET_NO": 999,
    "REV_AT_EPOCH": 833,
    "BSTAR": 0.0013921,
    "MEAN_MOTION_DOT": 0.00055758,
    "MEAN_MOTION_DDOT": 0.0,
    "TLE_LINE1": "1 65745U 25216M   25314.99411643  .00055758  00000+0  13921-2 0  9992",
    "TLE_LINE2": "2 65745  53.1607 164.7208 0000562  91.2055 268.9015 15.39655319  8336",
    "COMMENT": "Grouped by shell and plane from TLE"
  },
  {
    "OBJECT_NAME": "STARLINK-34704",
    "OBJECT_ID": "25216N",
    "EPOCH": "2025-11-10T23:38:09.240288",
    "MEAN_MOTION": 15.39660904,
    "ECCENTRICITY": 5.96e-05,
    "INCLINATION": 53.1603,
    "RA_OF_ASC_NODE": 164.6612,
    "ARG_OF_PERICENTER": 106.4206,
    "MEAN_ANOMALY": 253.6865,
    "EPHEMERIS_TYPE": 0,
    "CLASSIFICATION_TYPE": "U",
    "NORAD_CAT_ID": 65746,
    "ELEMENT_SET_NO": 999,
    "REV_AT_EPOCH": 835,
    "BSTAR": 0.0015306,
    "MEAN_MOTION_DOT": 0.00061402,
    "MEAN_MOTION_DDOT": 0.0,
    "TLE_LINE1": "1 65746U 25216N   25314.98482917  .00061402  00000+0  15306-2 0  9996",
    "TLE_LINE2": "2 65746  53.1603 164.6612 0000596 106.4206 253.6865 15.39660904  8357",
    "COMMENT": "Grouped by shell and plane from TLE"
  },
  {
    "OBJECT_NAME": "STARLINK-35214",
    "OBJECT_ID": "25216P",
    "EPOCH": "2025-11-10T21:51:18.791424",
    "MEAN_MOTION": 15.39658284,
    "ECCENTRICITY": 0.0002352,
    "INCLINATION": 53.1594,
    "RA_OF_ASC_NODE": 164.9098,
    "ARG_OF_PERICENTER": 93.616,
    "MEAN_ANOMALY": 266.5114,
    "EPHEMERIS_TYPE": 0,
    "CLASSIFICATION_TYPE": "U",
    "NORAD_CAT_ID": 65747,
    "ELEMENT_SET_NO": 999,
    "REV_AT_EPOCH": 835,
    "BSTAR": 0.0011889,
    "MEAN_MOTION_DOT": 0.00047514,
    "MEAN_MOTION_DDOT": 0.0,
    "TLE_LINE1": "1 65747U 25216P   25314.91063416  .00047514  00000+0  11889-2 0  9999",
    "TLE_LINE2": "2 65747  53.1594 164.9098 0002352  93.6160 266.5114 15.39658284  8354",
    "COMMENT": "Grouped by shell and plane from TLE"
  },
  {
    "OBJECT_NAME": "STARLINK-35265",
    "OBJECT_ID": "25216Q",
    "EPOCH": "2025-11-11T08:00:03.000384",
    "MEAN_MOTION": 15.39580988,
    "ECCENTRICITY": 0.0001172,
    "INCLINATION": 53.1591,
    "RA_OF_ASC_NODE": 163.4367,
    "ARG_OF_PERICENTER": 99.2233,
    "MEAN_ANOMALY": 185.9251,
    "EPHEMERIS_TYPE": 0,
    "CLASSIFICATION_TYPE": "U",
    "NORAD_CAT_ID": 65748,
    "ELEMENT_SET_NO": 999,
    "REV_AT_EPOCH": 582,
    "BSTAR": 0.0009046600000000001,
    "MEAN_MOTION_DOT": 0.0003591,
    "MEAN_MOTION_DDOT": 0.0,
    "TLE_LINE1": "1 65748U 25216Q   25315.33336806  .00035910  00000+0  90466-3 0  9999",
    "TLE_LINE2": "2 65748  53.1591 163.4367 0001172  99.2233 185.9251 15.39580988  5827",
    "COMMENT": "Grouped by shell and plane from TLE"
  }
]